*******************************************************************************
Ephemeris / WWW_USER Mon Mar 24 06:59:26 2025 Pasadena, USA      / Horizons    
*******************************************************************************
Target body name: Pluto (999)                     {source: plu060_merged}
Center body name: Earth (399)                     {source: DE441}
Center-site name: Mauna Kea
*******************************************************************************
Start time      : A.D. 2018-Oct-22 04:03:00.0000 UT      
Stop  time      : A.D. 2018-Oct-22 16:09:00.0000 UT      
Step-size       : 1 minutes
*******************************************************************************
Target pole/equ : IAU_PLUTO                       {East-longitude positive}
Target radii    : 1188.3, 1188.3, 1188.3 km       {Equator_a, b, pole_c}       
Center geodetic : 204.5278, 19.8260847, 4.21024   {E-lon(deg),Lat(deg),Alt(km)}
Center cylindric: 204.5278, 6006.35451, 2151.0229 {E-lon(deg),Dxy(km),Dz(km)}
Center pole/equ : ITRF93                          {East-longitude positive}
Center radii    : 6378.137, 6378.137, 6356.752 km {Equator_a, b, pole_c}       
Target primary  : Sun
Vis. interferer : MOON (R_eq= 1737.400) km        {source: DE441}
Rel. light bend : Sun                             {source: plu060_merged}
Rel. lght bnd GM: 1.3271E+11 km^3/s^2                                          
Atmos refraction: NO (AIRLESS)
RA format       : HMS
Time format     : CAL 
Calendar mode   : Mixed Julian/Gregorian
RTS-only print  : NO       
EOP file        : eop.250321.p250617                                           
EOP coverage    : DATA-BASED 1962-JAN-20 TO 2025-MAR-21. PREDICTS-> 2025-JUN-16
Units conversion: 1 au= 149597870.700 km, c= 299792.458 km/s, 1 day= 86400.0 s 
Table cut-offs 1: Elevation (-90.0deg=NO ),Airmass (>38.000=NO), Daylight (YES)
Table cut-offs 2: Solar elongation (  0.0,180.0=NO ),Local Hour Angle( 0.0=NO )
Table cut-offs 3: RA/DEC angular rate (     0.0=NO )                           
*******************************************************************************
 Date__(UT)__HR:MN     R.A._________(ICRF)_________DEC
******************************************************
$$SOE
 2018-Oct-22 13:27  m  19 20 37.740004 -22 08 27.72685
 2018-Oct-22 13:28  m  19 20 37.742017 -22 08 27.72679
 2018-Oct-22 13:29  m  19 20 37.744030 -22 08 27.72674
 2018-Oct-22 13:30  m  19 20 37.746043 -22 08 27.72669
 2018-Oct-22 13:31  m  19 20 37.748057 -22 08 27.72663
 2018-Oct-22 13:32  m  19 20 37.750071 -22 08 27.72659
 2018-Oct-22 13:33  m  19 20 37.752085 -22 08 27.72654
 2018-Oct-22 13:34  m  19 20 37.754099 -22 08 27.72649
 2018-Oct-22 13:35  m  19 20 37.756114 -22 08 27.72645
 2018-Oct-22 13:36  m  19 20 37.758128 -22 08 27.72640
 2018-Oct-22 13:37  m  19 20 37.760143 -22 08 27.72636
 2018-Oct-22 13:38  m  19 20 37.762159 -22 08 27.72632
 2018-Oct-22 13:39  m  19 20 37.764174 -22 08 27.72628
 2018-Oct-22 13:40  m  19 20 37.766190 -22 08 27.72624
 2018-Oct-22 13:41  m  19 20 37.768206 -22 08 27.72620
 2018-Oct-22 13:42  m  19 20 37.770222 -22 08 27.72617
 2018-Oct-22 13:43  m  19 20 37.772238 -22 08 27.72613
 2018-Oct-22 13:44  m  19 20 37.774255 -22 08 27.72610
 2018-Oct-22 13:45  m  19 20 37.776271 -22 08 27.72607
 2018-Oct-22 13:46  m  19 20 37.778289 -22 08 27.72604
 2018-Oct-22 13:47  m  19 20 37.780306 -22 08 27.72601
 2018-Oct-22 13:48  m  19 20 37.782323 -22 08 27.72598
 2018-Oct-22 13:49  m  19 20 37.784341 -22 08 27.72595
 2018-Oct-22 13:50  m  19 20 37.786359 -22 08 27.72593
 2018-Oct-22 13:51  m  19 20 37.788377 -22 08 27.72591
 2018-Oct-22 13:52  m  19 20 37.790395 -22 08 27.72588
 2018-Oct-22 13:53  m  19 20 37.792414 -22 08 27.72586
 2018-Oct-22 13:54  m  19 20 37.794433 -22 08 27.72585
 2018-Oct-22 13:55  m  19 20 37.796452 -22 08 27.72583
 2018-Oct-22 13:56  m  19 20 37.798471 -22 08 27.72581
 2018-Oct-22 13:57  m  19 20 37.800490 -22 08 27.72580
 2018-Oct-22 13:58  m  19 20 37.802510 -22 08 27.72578
 2018-Oct-22 13:59  m  19 20 37.804530 -22 08 27.72577
 2018-Oct-22 14:00  m  19 20 37.806550 -22 08 27.72576
 2018-Oct-22 14:01  m  19 20 37.808570 -22 08 27.72575
 2018-Oct-22 14:02  m  19 20 37.810590 -22 08 27.72575
 2018-Oct-22 14:03  m  19 20 37.812611 -22 08 27.72574
 2018-Oct-22 14:04  m  19 20 37.814632 -22 08 27.72574
 2018-Oct-22 14:05  m  19 20 37.816653 -22 08 27.72573
 2018-Oct-22 14:06  m  19 20 37.818674 -22 08 27.72573
 2018-Oct-22 14:07  m  19 20 37.820695 -22 08 27.72573
 2018-Oct-22 14:08  m  19 20 37.822717 -22 08 27.72573
 2018-Oct-22 14:09  m  19 20 37.824738 -22 08 27.72573
 2018-Oct-22 14:10  m  19 20 37.826760 -22 08 27.72574
 2018-Oct-22 14:11  m  19 20 37.828783 -22 08 27.72574
 2018-Oct-22 14:12  m  19 20 37.830805 -22 08 27.72575
 2018-Oct-22 14:13  m  19 20 37.832827 -22 08 27.72576
 2018-Oct-22 14:14  m  19 20 37.834850 -22 08 27.72577
 2018-Oct-22 14:15  m  19 20 37.836873 -22 08 27.72578
 2018-Oct-22 14:16  m  19 20 37.838896 -22 08 27.72580
 2018-Oct-22 14:17  m  19 20 37.840919 -22 08 27.72581
 2018-Oct-22 14:18  m  19 20 37.842943 -22 08 27.72583
 2018-Oct-22 14:19  m  19 20 37.844966 -22 08 27.72584
 2018-Oct-22 14:20  m  19 20 37.846990 -22 08 27.72586
 2018-Oct-22 14:21  m  19 20 37.849014 -22 08 27.72588
 2018-Oct-22 14:22  m  19 20 37.851038 -22 08 27.72591
 2018-Oct-22 14:23  m  19 20 37.853063 -22 08 27.72593
 2018-Oct-22 14:24  m  19 20 37.855087 -22 08 27.72596
 2018-Oct-22 14:25  m  19 20 37.857112 -22 08 27.72598
 2018-Oct-22 14:26  m  19 20 37.859136 -22 08 27.72601
 2018-Oct-22 14:27  m  19 20 37.861161 -22 08 27.72604
 2018-Oct-22 14:28  m  19 20 37.863187 -22 08 27.72607
 2018-Oct-22 14:29  m  19 20 37.865212 -22 08 27.72610
 2018-Oct-22 14:30  m  19 20 37.867237 -22 08 27.72614
 2018-Oct-22 14:31  m  19 20 37.869263 -22 08 27.72618
 2018-Oct-22 14:32  m  19 20 37.871289 -22 08 27.72621
 2018-Oct-22 14:33  m  19 20 37.873315 -22 08 27.72625
 2018-Oct-22 14:34  m  19 20 37.875341 -22 08 27.72629
 2018-Oct-22 14:35  m  19 20 37.877367 -22 08 27.72633
 2018-Oct-22 14:36  m  19 20 37.879393 -22 08 27.72638
 2018-Oct-22 14:37  m  19 20 37.881420 -22 08 27.72642
 2018-Oct-22 14:38  m  19 20 37.883447 -22 08 27.72647
 2018-Oct-22 14:39  m  19 20 37.885474 -22 08 27.72652
 2018-Oct-22 14:40  m  19 20 37.887501 -22 08 27.72657
 2018-Oct-22 14:41  m  19 20 37.889528 -22 08 27.72662
 2018-Oct-22 14:42  m  19 20 37.891555 -22 08 27.72667
 2018-Oct-22 14:43  m  19 20 37.893582 -22 08 27.72673
 2018-Oct-22 14:44  m  19 20 37.895610 -22 08 27.72678
 2018-Oct-22 14:45     19 20 37.897638 -22 08 27.72684
 2018-Oct-22 14:46     19 20 37.899666 -22 08 27.72690
 2018-Oct-22 14:47     19 20 37.901694 -22 08 27.72696
 2018-Oct-22 14:48     19 20 37.903722 -22 08 27.72702
 2018-Oct-22 14:49     19 20 37.905750 -22 08 27.72709
 2018-Oct-22 14:50     19 20 37.907779 -22 08 27.72715
 2018-Oct-22 14:51     19 20 37.909807 -22 08 27.72722
 2018-Oct-22 14:52     19 20 37.911836 -22 08 27.72729
 2018-Oct-22 14:53     19 20 37.913865 -22 08 27.72736
 2018-Oct-22 14:54     19 20 37.915893 -22 08 27.72743
 2018-Oct-22 14:55     19 20 37.917923 -22 08 27.72750
 2018-Oct-22 14:56     19 20 37.919952 -22 08 27.72758
 2018-Oct-22 14:57     19 20 37.921981 -22 08 27.72765
 2018-Oct-22 14:58     19 20 37.924010 -22 08 27.72773
 2018-Oct-22 14:59     19 20 37.926040 -22 08 27.72781
 2018-Oct-22 15:00     19 20 37.928070 -22 08 27.72789
 2018-Oct-22 15:01     19 20 37.930099 -22 08 27.72797
 2018-Oct-22 15:02     19 20 37.932129 -22 08 27.72806
 2018-Oct-22 15:03     19 20 37.934159 -22 08 27.72814
 2018-Oct-22 15:04     19 20 37.936189 -22 08 27.72823
 2018-Oct-22 15:05     19 20 37.938220 -22 08 27.72832
 2018-Oct-22 15:06 A   19 20 37.940250 -22 08 27.72841
 2018-Oct-22 15:07 A   19 20 37.942281 -22 08 27.72850
 2018-Oct-22 15:08 A   19 20 37.944311 -22 08 27.72860
 2018-Oct-22 15:09 A   19 20 37.946342 -22 08 27.72869
 2018-Oct-22 15:10 A   19 20 37.948373 -22 08 27.72879
 2018-Oct-22 15:11 A   19 20 37.950403 -22 08 27.72889
 2018-Oct-22 15:12 A   19 20 37.952434 -22 08 27.72899
 2018-Oct-22 15:13 A   19 20 37.954466 -22 08 27.72909
 2018-Oct-22 15:14 A   19 20 37.956497 -22 08 27.72919
 2018-Oct-22 15:15 A   19 20 37.958528 -22 08 27.72930
 2018-Oct-22 15:16 A   19 20 37.960559 -22 08 27.72940
 2018-Oct-22 15:17 A   19 20 37.962591 -22 08 27.72951
 2018-Oct-22 15:18 A   19 20 37.964622 -22 08 27.72962
 2018-Oct-22 15:19 A   19 20 37.966654 -22 08 27.72973
 2018-Oct-22 15:20 A   19 20 37.968686 -22 08 27.72985
 2018-Oct-22 15:21 A   19 20 37.970718 -22 08 27.72996
 2018-Oct-22 15:22 A   19 20 37.972750 -22 08 27.73008
 2018-Oct-22 15:23 A   19 20 37.974782 -22 08 27.73020
 2018-Oct-22 15:24 A   19 20 37.976814 -22 08 27.73032
 2018-Oct-22 15:25 A   19 20 37.978846 -22 08 27.73044
 2018-Oct-22 15:26 A   19 20 37.980878 -22 08 27.73056
 2018-Oct-22 15:27 A   19 20 37.982910 -22 08 27.73068
 2018-Oct-22 15:28 A   19 20 37.984943 -22 08 27.73081
 2018-Oct-22 15:29 A   19 20 37.986975 -22 08 27.73094
 2018-Oct-22 15:30 A   19 20 37.989008 -22 08 27.73107
 2018-Oct-22 15:31 N   19 20 37.991041 -22 08 27.73120
 2018-Oct-22 15:32 N   19 20 37.993073 -22 08 27.73133
 2018-Oct-22 15:33 N   19 20 37.995106 -22 08 27.73146
 2018-Oct-22 15:34 N   19 20 37.997139 -22 08 27.73160
 2018-Oct-22 15:35 N   19 20 37.999172 -22 08 27.73173
 2018-Oct-22 15:36 N   19 20 38.001205 -22 08 27.73187
 2018-Oct-22 15:37 N   19 20 38.003238 -22 08 27.73201
 2018-Oct-22 15:38 N   19 20 38.005271 -22 08 27.73216
 2018-Oct-22 15:39 N   19 20 38.007304 -22 08 27.73230
 2018-Oct-22 15:40 N   19 20 38.009337 -22 08 27.73244
 2018-Oct-22 15:41 N   19 20 38.011371 -22 08 27.73259
 2018-Oct-22 15:42 N   19 20 38.013404 -22 08 27.73274
 2018-Oct-22 15:43 N   19 20 38.015437 -22 08 27.73289
 2018-Oct-22 15:44 N   19 20 38.017471 -22 08 27.73304
 2018-Oct-22 15:45 N   19 20 38.019504 -22 08 27.73319
 2018-Oct-22 15:46 N   19 20 38.021538 -22 08 27.73335
 2018-Oct-22 15:47 N   19 20 38.023572 -22 08 27.73350
